TRANSPORTER-15CM        
1 66749U 25276CM  25363.14982017  .00011583  00000+0  57294-3 0  9992
2 66749  97.4397  74.6404 0002377 168.2955 191.8335 15.17972907  4612
TRANSPORTER-15CN        
1 66750U 25276CN  25362.94836894  .00037572  00000+0  18375-2 0  9994
2 66750  97.4439  74.4688 0002521 139.6816 220.4605 15.18107200  4584
ICEYE-X58               
1 66751U 25276CP  25363.28236824  .00016954  00000+0  83865-3 0  9998
2 66751  97.4409  74.7782 0002868 181.5927 178.5298 15.17880973  4634
ICEYE-X59               
1 66752U 25276CQ  25363.22031719  .00015183  00000+0  75603-3 0  9993
2 66752  97.4402  74.7076 0002292 207.0458 153.0657 15.17675296  4624
ICEYE-X60               
1 66753U 25276CR  25363.15905391  .00009671  00000+0  48627-3 0  9993
2 66753  97.4403  74.6329 0001382 230.2494 129.8618 15.17447285  4615
ICEYE-X61               
1 66754U 25276CS  25363.14947327  .00011180  00000+0  55411-3 0  9995
2 66754  97.4403  74.6446 0002765 171.5378 188.5903 15.17910771  4614
ICEYE-X62               
1 66755U 25276CT  25363.15457643  .00019387  00000+0  96323-3 0  9998
2 66755  97.4400  74.6371 0001445 196.1679 163.9509 15.17700346  4614
TRANSPORTER-15CU        
1 66756U 25276CU  25361.89638039 -.02175858  00000+0 -13429+0 0  9990
2 66756  97.4405  73.4183 0016107 152.6114 207.5970 15.13790352  4428
TRANSPORTER-15CV        
1 66757U 25276CV  25363.27783852  .00011206  00000+0  55119-3 0  9997
2 66757  97.4422  74.7869 0002145 142.3167 217.8217 15.18175816  4632
TRANSPORTER-15CW        
1 66758U 25276CW  25363.27757281  .00011299  00000+0  55586-3 0  9995
2 66758  97.4391  74.7750 0001725 131.7125 228.4257 15.18168555  4630
TRANSPORTER-15CX        
1 66759U 25276CX  25363.14349287  .00012813  00000+0  62693-3 0  9995
2 66759  97.4378  74.6428 0002141 129.2347 230.9078 15.18325654  4610
TRANSPORTER-15CY        
1 66760U 25276CY  25363.27509031 -.00022271  00000+0 -10895-2 0  9993
2 66760  97.4395  74.7803 0002250 110.4532 249.6944 15.18215354  4634
