CCSDS_OMM_VERS = 2.0
CREATION_DATE  = 
ORIGINATOR     = 

OBJECT_NAME    = TRANSPORTER-15CM
OBJECT_ID      = 2025-276CM
CENTER_NAME    = EARTH
REF_FRAME      = TEME
TIME_SYSTEM    = UTC
MEAN_ELEMENT_THEORY = SGP/SGP4

EPOCH          = 2025-12-29T03:35:44.462688
MEAN_MOTION    = 15.17972907
ECCENTRICITY   = .00023775
INCLINATION    = 97.4397
RA_OF_ASC_NODE = 74.6404
ARG_OF_PERICENTER = 168.2955
MEAN_ANOMALY   = 191.8335

EPHEMERIS_TYPE = 0
CLASSIFICATION_TYPE = U
NORAD_CAT_ID   = 66749
ELEMENT_SET_NO = 999
REV_AT_EPOCH   = 461
BSTAR          = .57293884E-3
MEAN_MOTION_DOT = .11583E-3
MEAN_MOTION_DDOT = 0

CCSDS_OMM_VERS = 2.0
CREATION_DATE  = 
ORIGINATOR     = 

OBJECT_NAME    = TRANSPORTER-15CN
OBJECT_ID      = 2025-276CN
CENTER_NAME    = EARTH
REF_FRAME      = TEME
TIME_SYSTEM    = UTC
MEAN_ELEMENT_THEORY = SGP/SGP4

EPOCH          = 2025-12-28T22:45:39.076416
MEAN_MOTION    = 15.18107200
ECCENTRICITY   = .00025215
INCLINATION    = 97.4439
RA_OF_ASC_NODE = 74.4688
ARG_OF_PERICENTER = 139.6816
MEAN_ANOMALY   = 220.4605

EPHEMERIS_TYPE = 0
CLASSIFICATION_TYPE = U
NORAD_CAT_ID   = 66750
ELEMENT_SET_NO = 999
REV_AT_EPOCH   = 458
BSTAR          = .18374632E-2
MEAN_MOTION_DOT = .37572E-3
MEAN_MOTION_DDOT = 0

CCSDS_OMM_VERS = 2.0
CREATION_DATE  = 
ORIGINATOR     = 

OBJECT_NAME    = ICEYE-X58
OBJECT_ID      = 2025-276CP
CENTER_NAME    = EARTH
REF_FRAME      = TEME
TIME_SYSTEM    = UTC
MEAN_ELEMENT_THEORY = SGP/SGP4

EPOCH          = 2025-12-29T06:46:36.615936
MEAN_MOTION    = 15.17880973
ECCENTRICITY   = .00028681
INCLINATION    = 97.4409
RA_OF_ASC_NODE = 74.7782
ARG_OF_PERICENTER = 181.5927
MEAN_ANOMALY   = 178.5298

EPHEMERIS_TYPE = 0
CLASSIFICATION_TYPE = U
NORAD_CAT_ID   = 66751
ELEMENT_SET_NO = 999
REV_AT_EPOCH   = 463
BSTAR          = .83864822E-3
MEAN_MOTION_DOT = .16954E-3
MEAN_MOTION_DDOT = 0

CCSDS_OMM_VERS = 2.0
CREATION_DATE  = 
ORIGINATOR     = 

OBJECT_NAME    = ICEYE-X59
OBJECT_ID      = 2025-276CQ
CENTER_NAME    = EARTH
REF_FRAME      = TEME
TIME_SYSTEM    = UTC
MEAN_ELEMENT_THEORY = SGP/SGP4

EPOCH          = 2025-12-29T05:17:15.405216
MEAN_MOTION    = 15.17675296
ECCENTRICITY   = .00022924
INCLINATION    = 97.4402
RA_OF_ASC_NODE = 74.7076
ARG_OF_PERICENTER = 207.0458
MEAN_ANOMALY   = 153.0657

EPHEMERIS_TYPE = 0
CLASSIFICATION_TYPE = U
NORAD_CAT_ID   = 66752
ELEMENT_SET_NO = 999
REV_AT_EPOCH   = 462
BSTAR          = .75602561E-3
MEAN_MOTION_DOT = .15183E-3
MEAN_MOTION_DDOT = 0

CCSDS_OMM_VERS = 2.0
CREATION_DATE  = 
ORIGINATOR     = 

OBJECT_NAME    = ICEYE-X60
OBJECT_ID      = 2025-276CR
CENTER_NAME    = EARTH
REF_FRAME      = TEME
TIME_SYSTEM    = UTC
MEAN_ELEMENT_THEORY = SGP/SGP4

EPOCH          = 2025-12-29T03:49:02.257824
MEAN_MOTION    = 15.17447285
ECCENTRICITY   = .00013825
INCLINATION    = 97.4403
RA_OF_ASC_NODE = 74.6329
ARG_OF_PERICENTER = 230.2494
MEAN_ANOMALY   = 129.8618

EPHEMERIS_TYPE = 0
CLASSIFICATION_TYPE = U
NORAD_CAT_ID   = 66753
ELEMENT_SET_NO = 999
REV_AT_EPOCH   = 461
BSTAR          = .48627387E-3
MEAN_MOTION_DOT = .9671E-4
MEAN_MOTION_DDOT = 0

CCSDS_OMM_VERS = 2.0
CREATION_DATE  = 
ORIGINATOR     = 

OBJECT_NAME    = ICEYE-X61
OBJECT_ID      = 2025-276CS
CENTER_NAME    = EARTH
REF_FRAME      = TEME
TIME_SYSTEM    = UTC
MEAN_ELEMENT_THEORY = SGP/SGP4

EPOCH          = 2025-12-29T03:35:14.490528
MEAN_MOTION    = 15.17910771
ECCENTRICITY   = .00027651
INCLINATION    = 97.4403
RA_OF_ASC_NODE = 74.6446
ARG_OF_PERICENTER = 171.5378
MEAN_ANOMALY   = 188.5903

EPHEMERIS_TYPE = 0
CLASSIFICATION_TYPE = U
NORAD_CAT_ID   = 66754
ELEMENT_SET_NO = 999
REV_AT_EPOCH   = 461
BSTAR          = .5541116E-3
MEAN_MOTION_DOT = .1118E-3
MEAN_MOTION_DDOT = 0

CCSDS_OMM_VERS = 2.0
CREATION_DATE  = 
ORIGINATOR     = 

OBJECT_NAME    = ICEYE-X62
OBJECT_ID      = 2025-276CT
CENTER_NAME    = EARTH
REF_FRAME      = TEME
TIME_SYSTEM    = UTC
MEAN_ELEMENT_THEORY = SGP/SGP4

EPOCH          = 2025-12-29T03:42:35.403552
MEAN_MOTION    = 15.17700346
ECCENTRICITY   = .00014454
INCLINATION    = 97.4400
RA_OF_ASC_NODE = 74.6371
ARG_OF_PERICENTER = 196.1679
MEAN_ANOMALY   = 163.9509

EPHEMERIS_TYPE = 0
CLASSIFICATION_TYPE = U
NORAD_CAT_ID   = 66755
ELEMENT_SET_NO = 999
REV_AT_EPOCH   = 461
BSTAR          = .96323152E-3
MEAN_MOTION_DOT = .19387E-3
MEAN_MOTION_DDOT = 0

CCSDS_OMM_VERS = 2.0
CREATION_DATE  = 
ORIGINATOR     = 

OBJECT_NAME    = TRANSPORTER-15CU
OBJECT_ID      = 2025-276CU
CENTER_NAME    = EARTH
REF_FRAME      = TEME
TIME_SYSTEM    = UTC
MEAN_ELEMENT_THEORY = SGP/SGP4

EPOCH          = 2025-12-27T21:30:47.265696
MEAN_MOTION    = 15.13790352
ECCENTRICITY   = .0016107
INCLINATION    = 97.4405
RA_OF_ASC_NODE = 73.4183
ARG_OF_PERICENTER = 152.6114
MEAN_ANOMALY   = 207.5970

EPHEMERIS_TYPE = 0
CLASSIFICATION_TYPE = U
NORAD_CAT_ID   = 66756
ELEMENT_SET_NO = 999
REV_AT_EPOCH   = 442
BSTAR          = -.13429E+0
MEAN_MOTION_DOT = -.2175858E-1
MEAN_MOTION_DDOT = 0

CCSDS_OMM_VERS = 2.0
CREATION_DATE  = 
ORIGINATOR     = 

OBJECT_NAME    = TRANSPORTER-15CV
OBJECT_ID      = 2025-276CV
CENTER_NAME    = EARTH
REF_FRAME      = TEME
TIME_SYSTEM    = UTC
MEAN_ELEMENT_THEORY = SGP/SGP4

EPOCH          = 2025-12-29T06:40:05.248128
MEAN_MOTION    = 15.18175816
ECCENTRICITY   = .00021451
INCLINATION    = 97.4422
RA_OF_ASC_NODE = 74.7869
ARG_OF_PERICENTER = 142.3167
MEAN_ANOMALY   = 217.8217

EPHEMERIS_TYPE = 0
CLASSIFICATION_TYPE = U
NORAD_CAT_ID   = 66757
ELEMENT_SET_NO = 999
REV_AT_EPOCH   = 463
BSTAR          = .55119261E-3
MEAN_MOTION_DOT = .11206E-3
MEAN_MOTION_DDOT = 0

CCSDS_OMM_VERS = 2.0
CREATION_DATE  = 
ORIGINATOR     = 

OBJECT_NAME    = TRANSPORTER-15CW
OBJECT_ID      = 2025-276CW
CENTER_NAME    = EARTH
REF_FRAME      = TEME
TIME_SYSTEM    = UTC
MEAN_ELEMENT_THEORY = SGP/SGP4

EPOCH          = 2025-12-29T06:39:42.290784
MEAN_MOTION    = 15.18168555
ECCENTRICITY   = .00017257
INCLINATION    = 97.4391
RA_OF_ASC_NODE = 74.7750
ARG_OF_PERICENTER = 131.7125
MEAN_ANOMALY   = 228.4257

EPHEMERIS_TYPE = 0
CLASSIFICATION_TYPE = U
NORAD_CAT_ID   = 66758
ELEMENT_SET_NO = 999
REV_AT_EPOCH   = 463
BSTAR          = .5558634E-3
MEAN_MOTION_DOT = .11299E-3
MEAN_MOTION_DDOT = 0

CCSDS_OMM_VERS = 2.0
CREATION_DATE  = 
ORIGINATOR     = 

OBJECT_NAME    = TRANSPORTER-15CX
OBJECT_ID      = 2025-276CX
CENTER_NAME    = EARTH
REF_FRAME      = TEME
TIME_SYSTEM    = UTC
MEAN_ELEMENT_THEORY = SGP/SGP4

EPOCH          = 2025-12-29T03:26:37.783968
MEAN_MOTION    = 15.18325654
ECCENTRICITY   = .00021418
INCLINATION    = 97.4378
RA_OF_ASC_NODE = 74.6428
ARG_OF_PERICENTER = 129.2347
MEAN_ANOMALY   = 230.9078

EPHEMERIS_TYPE = 0
CLASSIFICATION_TYPE = U
NORAD_CAT_ID   = 66759
ELEMENT_SET_NO = 999
REV_AT_EPOCH   = 461
BSTAR          = .62693355E-3
MEAN_MOTION_DOT = .12813E-3
MEAN_MOTION_DDOT = 0

CCSDS_OMM_VERS = 2.0
CREATION_DATE  = 
ORIGINATOR     = 

OBJECT_NAME    = TRANSPORTER-15CY
OBJECT_ID      = 2025-276CY
CENTER_NAME    = EARTH
REF_FRAME      = TEME
TIME_SYSTEM    = UTC
MEAN_ELEMENT_THEORY = SGP/SGP4

EPOCH          = 2025-12-29T06:36:07.802784
MEAN_MOTION    = 15.18215354
ECCENTRICITY   = .00022507
INCLINATION    = 97.4395
RA_OF_ASC_NODE = 74.7803
ARG_OF_PERICENTER = 110.4532
MEAN_ANOMALY   = 249.6944

EPHEMERIS_TYPE = 0
CLASSIFICATION_TYPE = U
NORAD_CAT_ID   = 66760
ELEMENT_SET_NO = 999
REV_AT_EPOCH   = 463
BSTAR          = -.10895089E-2
MEAN_MOTION_DOT = -.22271E-3
MEAN_MOTION_DDOT = 0

